{
  "type": "FeatureCollection",
  "features": [
    {
      "type": "Feature",
      "properties": {
        "norad_id": 54259,
        "name": "EUTELSAT 10B",
        "group": "eutelsat",
        "lat": 0.00706331085716798,
        "lon": 85.27479990089863,
        "alt_km": 35785.3797251931,
        "timestamp": "2025-12-25T22:42:16.668146+00:00",
        "meta_object_name": "EUTELSAT 10B",
        "meta_object_id": "2022-157A",
        "meta_epoch": "2025-12-25T01:07:54.431328",
        "meta_mean_motion": 1.00270064,
        "meta_eccentricity": 6.834e-05,
        "meta_inclination": 0.06,
        "meta_ra_of_asc_node": 95.6031,
        "meta_arg_of_pericenter": 57.2113,
        "meta_mean_anomaly": 328.0007,
        "meta_ephemeris_type": 0,
        "meta_classification_type": "U",
        "meta_norad_cat_id": 54259,
        "meta_element_set_no": 999,
        "meta_rev_at_epoch": 1128,
        "meta_bstar": 0,
        "meta_mean_motion_dot": 8.9e-07,
        "meta_mean_motion_ddot": 0,
        "tle_line1": "1 54259U 22157A   25359.04715777  .00000089  00000+0  00000+0 0  9999",
        "tle_line2": "2 54259   0.0600  95.6031 0000683  57.2113 328.0007  1.00270064 11285"
      },
      "geometry": {
        "type": "Point",
        "coordinates": [
          85.27479990089863,
          0.00706331085716798
        ]
      }
    },
    {
      "type": "Feature",
      "properties": {
        "norad_id": 59346,
        "name": "EUTELSAT 36D",
        "group": "eutelsat",
        "lat": 0.03780826495710298,
        "lon": 111.16319181754852,
        "alt_km": 35786.6035927453,
        "timestamp": "2025-12-25T22:42:16.668157+00:00",
        "meta_object_name": "EUTELSAT 36D",
        "meta_object_id": "2024-059A",
        "meta_epoch": "2025-12-24T21:49:50.901024",
        "meta_mean_motion": 1.00275345,
        "meta_eccentricity": 6.34e-05,
        "meta_inclination": 0.0185,
        "meta_ra_of_asc_node": 36.8149,
        "meta_arg_of_pericenter": 305.8613,
        "meta_mean_anomaly": 114.3448,
        "meta_ephemeris_type": 0,
        "meta_classification_type": "U",
        "meta_norad_cat_id": 59346,
        "meta_element_set_no": 999,
        "meta_rev_at_epoch": 640,
        "meta_bstar": 0,
        "meta_mean_motion_dot": 1.77e-06,
        "meta_mean_motion_ddot": 0,
        "tle_line1": "1 59346U 24059A   25358.90961691  .00000177  00000+0  00000+0 0  9994",
        "tle_line2": "2 59346   0.0185  36.8149 0000634 305.8613 114.3448  1.00275345  6405"
      },
      "geometry": {
        "type": "Point",
        "coordinates": [
          111.16319181754852,
          0.03780826495710298
        ]
      }
    }
  ]
}